start=new Date('2022-05-06T00:00:00.000Z').valueOf();
sats=[{"EPOCH":"2022-05-05T05:15:37.442304","MEAN_MOTION_DDOT":"0.0000000000000","ECCENTRICITY":"0.00042570","NORAD_CAT_ID":"44238","RA_OF_ASC_NODE":"312.3654","REV_AT_EPOCH":"16160","SITE":"AFETR","MEAN_ANOMALY":"143.2043","TLE_LINE2":"2 44238  53.0066 312.3654 0004257 216.8663 143.2043 15.28815788161601","CLASSIFICATION_TYPE":"U","TIME_SYSTEM":"UTC","GP_ID":"202767611","SEMIMAJOR_AXIS":"6857.488","EPHEMERIS_TYPE":"0","APOAPSIS":"482.272","TLE_LINE1":"1 44238U 19029D   22125.21918336  .00142899  00000-0  49500-2 0  9990","ELEMENT_SET_NO":"999","MEAN_ELEMENT_THEORY":"SGP4","CENTER_NAME":"EARTH","MEAN_MOTION":"15.28815788","BSTAR":"0.00495000000000","OBJECT_NAME":"STARLINK-24","INCLINATION":"53.0066","REF_FRAME":"TEME","ARG_OF_PERICENTER":"216.8663","RCS_SIZE":"LARGE","PERIAPSIS":"476.434","COUNTRY_CODE":"US","PERIOD":"94.191","OBJECT_TYPE":"PAYLOAD","DECAY_DATE":null,"FILE":"3430353","MEAN_MOTION_DOT":"0.00142899","LAUNCH_DATE":"2019-05-24","OBJECT_ID":"2019-029D"},{"CENTER_NAME":"EARTH","MEAN_ELEMENT_THEORY":"SGP4","BSTAR":"0.00535620000000","MEAN_MOTION":"15.43436141","SEMIMAJOR_AXIS":"6814.114","GP_ID":"202801562","TLE_LINE1":"1 44249U 19029Q   22125.69371421  .00251417  00000-0  53562-2 0  9992","ELEMENT_SET_NO":"999","EPHEMERIS_TYPE":"0","APOAPSIS":"443.430","TIME_SYSTEM":"UTC","TLE_LINE2":"2 44249  52.9723 268.1394 0010935 321.4154  38.6067 15.43436141162959","CLASSIFICATION_TYPE":"U","ECCENTRICITY":"0.00109350","NORAD_CAT_ID":"44249","MEAN_MOTION_DDOT":"0.0000000000000","EPOCH":"2022-05-05T16:38:56.907744","MEAN_ANOMALY":"38.6067","SITE":"AFETR","REV_AT_EPOCH":"16295","RA_OF_ASC_NODE":"268.1394","OBJECT_ID":"2019-029Q","FILE":"3430750","LAUNCH_DATE":"2019-05-24","MEAN_MOTION_DOT":"0.00251417","PERIOD":"93.298","OBJECT_TYPE":"PAYLOAD","DECAY_DATE":null,"REF_FRAME":"TEME","INCLINATION":"52.9723","OBJECT_NAME":"STARLINK-61","COUNTRY_CODE":"US","PERIAPSIS":"428.528","RCS_SIZE":"LARGE","ARG_OF_PERICENTER":"321.4154"},{"ECCENTRICITY":"0.00047820","NORAD_CAT_ID":"44252","MEAN_MOTION_DDOT":"0.0000000000000","EPOCH":"2022-05-05T11:44:18.758400","MEAN_ANOMALY":"145.0866","REV_AT_EPOCH":"16233","SITE":"AFETR","RA_OF_ASC_NODE":"307.6273","TIME_SYSTEM":"UTC","CLASSIFICATION_TYPE":"U","TLE_LINE2":"2 44252  52.9993 307.6273 0004782 214.9820 145.0866 15.31418451162339","SEMIMAJOR_AXIS":"6849.716","GP_ID":"202766109","TLE_LINE1":"1 44252U 19029T   22125.48910600  .00107648  00000-0  34600-2 0  9999","ELEMENT_SET_NO":"999","APOAPSIS":"474.857","EPHEMERIS_TYPE":"0","CENTER_NAME":"EARTH","MEAN_ELEMENT_THEORY":"SGP4","BSTAR":"0.00346000000000","MEAN_MOTION":"15.31418451","REF_FRAME":"TEME","INCLINATION":"52.9993","OBJECT_NAME":"STARLINK-71","COUNTRY_CODE":"US","RCS_SIZE":"LARGE","PERIAPSIS":"468.306","ARG_OF_PERICENTER":"214.9820","OBJECT_TYPE":"PAYLOAD","PERIOD":"94.030","DECAY_DATE":null,"FILE":"3430353","LAUNCH_DATE":"2019-05-24","MEAN_MOTION_DOT":"0.00107648","OBJECT_ID":"2019-029T"},{"FILE":"3430750","MEAN_MOTION_DOT":"0.00002473","LAUNCH_DATE":"2019-11-11","OBJECT_ID":"2019-074A","ARG_OF_PERICENTER":"80.2050","PERIAPSIS":"546.180","RCS_SIZE":"LARGE","COUNTRY_CODE":"US","OBJECT_NAME":"STARLINK-1007","INCLINATION":"53.0543","REF_FRAME":"TEME","DECAY_DATE":null,"OBJECT_TYPE":"PAYLOAD","PERIOD":"95.592","APOAPSIS":"548.197","EPHEMERIS_TYPE":"0","TLE_LINE1":"1 44713U 19074A   22125.89190134  .00002473  00000-0  18479-3 0  9995","ELEMENT_SET_NO":"999","GP_ID":"202801601","SEMIMAJOR_AXIS":"6925.324","MEAN_MOTION":"15.06408120","BSTAR":"0.00018479000000","MEAN_ELEMENT_THEORY":"SGP4","CENTER_NAME":"EARTH","RA_OF_ASC_NODE":"8.5004","SITE":"AFETR","REV_AT_EPOCH":"13716","MEAN_ANOMALY":"279.9103","EPOCH":"2022-05-05T21:24:20.275776","MEAN_MOTION_DDOT":"0.0000000000000","ECCENTRICITY":"0.00014560","NORAD_CAT_ID":"44713","TLE_LINE2":"2 44713  53.0543   8.5004 0001456  80.2050 279.9103 15.06408120137165","CLASSIFICATION_TYPE":"U","TIME_SYSTEM":"UTC"},{"FILE":"3430353","LAUNCH_DATE":"2019-11-11","MEAN_MOTION_DOT":"0.00001886","OBJECT_ID":"2019-074B","ARG_OF_PERICENTER":"68.2929","RCS_SIZE":"LARGE","PERIAPSIS":"546.118","COUNTRY_CODE":"US","OBJECT_NAME":"STARLINK-1008","INCLINATION":"53.0551","REF_FRAME":"TEME","DECAY_DATE":null,"OBJECT_TYPE":"PAYLOAD","PERIOD":"95.592","EPHEMERIS_TYPE":"0","APOAPSIS":"548.293","TLE_LINE1":"1 44714U 19074B   22125.00822196  .00001886  00000-0  14545-3 0  9996","ELEMENT_SET_NO":"999","GP_ID":"202766148","SEMIMAJOR_AXIS":"6925.341","MEAN_MOTION":"15.06402570","BSTAR":"0.00014545000000","MEAN_ELEMENT_THEORY":"SGP4","CENTER_NAME":"EARTH","RA_OF_ASC_NODE":"12.4937","SITE":"AFETR","REV_AT_EPOCH":"13703","MEAN_ANOMALY":"291.8227","EPOCH":"2022-05-05T00:11:50.377344","MEAN_MOTION_DDOT":"0.0000000000000","ECCENTRICITY":"0.00015700","NORAD_CAT_ID":"44714","CLASSIFICATION_TYPE":"U","TLE_LINE2":"2 44714  53.0551  12.4937 0001570  68.2929 291.8227 15.06402570137031","TIME_SYSTEM":"UTC"},{"APOAPSIS":"548.151","EPHEMERIS_TYPE":"0","TLE_LINE1":"1 44715U 19074C   22125.39524491  .00005588  00000-0  39363-3 0  9994","ELEMENT_SET_NO":"999","GP_ID":"202775410","SEMIMAJOR_AXIS":"6925.309","MEAN_MOTION":"15.06413042","BSTAR":"0.00039363000000","MEAN_ELEMENT_THEORY":"SGP4","CENTER_NAME":"EARTH","RA_OF_ASC_NODE":"10.7471","SITE":"AFETR","REV_AT_EPOCH":"13725","MEAN_ANOMALY":"279.4702","EPOCH":"2022-05-05T09:29:09.160224","MEAN_MOTION_DDOT":"0.0000000000000","NORAD_CAT_ID":"44715","ECCENTRICITY":"0.00014110","CLASSIFICATION_TYPE":"U","TLE_LINE2":"2 44715  53.0559  10.7471 0001411  80.6447 279.4702 15.06413042137251","TIME_SYSTEM":"UTC","LAUNCH_DATE":"2019-11-11","FILE":"3430478","MEAN_MOTION_DOT":"0.00005588","OBJECT_ID":"2019-074C","ARG_OF_PERICENTER":"80.6447","RCS_SIZE":"LARGE","PERIAPSIS":"546.196","COUNTRY_CODE":"US","OBJECT_NAME":"STARLINK-1009","INCLINATION":"53.0559","REF_FRAME":"TEME","DECAY_DATE":null,"OBJECT_TYPE":"PAYLOAD","PERIOD":"95.591"},{"MEAN_ANOMALY":"276.2920","RA_OF_ASC_NODE":"8.5844","SITE":"AFETR","REV_AT_EPOCH":"13714","NORAD_CAT_ID":"44716","ECCENTRICITY":"0.00014730","EPOCH":"2022-05-05T21:04:28.668576","MEAN_MOTION_DDOT":"0.0000000000000","TIME_SYSTEM":"UTC","CLASSIFICATION_TYPE":"U","TLE_LINE2":"2 44716  53.0553   8.5844 0001473  83.8237 276.2920 15.06405343137145","EPHEMERIS_TYPE":"0","APOAPSIS":"548.217","ELEMENT_SET_NO":"999","TLE_LINE1":"1 44716U 19074D   22125.87810959  .00001252  00000-0  10292-3 0  9999","GP_ID":"202801360","SEMIMAJOR_AXIS":"6925.332","BSTAR":"0.00010292000000","MEAN_MOTION":"15.06405343","CENTER_NAME":"EARTH","MEAN_ELEMENT_THEORY":"SGP4","PERIAPSIS":"546.177","RCS_SIZE":"LARGE","COUNTRY_CODE":"US","ARG_OF_PERICENTER":"83.8237","INCLINATION":"53.0553","REF_FRAME":"TEME","OBJECT_NAME":"STARLINK-1010","DECAY_DATE":null,"OBJECT_TYPE":"PAYLOAD","PERIOD":"95.592","FILE":"3430750","MEAN_MOTION_DOT":"0.00001252","LAUNCH_DATE":"2019-11-11","OBJECT_ID":"2019-074D"},{"DECAY_DATE":null,"PERIOD":"95.592","OBJECT_TYPE":"PAYLOAD","RCS_SIZE":"LARGE","PERIAPSIS":"545.867","COUNTRY_CODE":"US","ARG_OF_PERICENTER":"34.8897","INCLINATION":"53.0554","REF_FRAME":"TEME","OBJECT_NAME":"STARLINK-1011","OBJECT_ID":"2019-074E","FILE":"3430750","MEAN_MOTION_DOT":"-0.00001760","LAUNCH_DATE":"2019-11-11","TIME_SYSTEM":"UTC","CLASSIFICATION_TYPE":"U","TLE_LINE2":"2 44717  53.0554  28.5695 0001956  34.8897 325.2220 15.06397355136888","MEAN_ANOMALY":"325.2220","RA_OF_ASC_NODE":"28.5695","SITE":"AFETR","REV_AT_EPOCH":"13688","ECCENTRICITY":"0.00019560","NORAD_CAT_ID":"44717","EPOCH":"2022-05-05T21:01:49.297728","MEAN_MOTION_DDOT":"0.0000000000000","BSTAR":"-0.00009928700000","MEAN_MOTION":"15.06397355","CENTER_NAME":"EARTH","MEAN_ELEMENT_THEORY":"SGP4","APOAPSIS":"548.576","EPHEMERIS_TYPE":"0","TLE_LINE1":"1 44717U 19074E   22125.87626502 -.00001760  00000-0 -99287-4 0  9997","ELEMENT_SET_NO":"999","GP_ID":"202802100","SEMIMAJOR_AXIS":"6925.357"},{"CENTER_NAME":"EARTH","MEAN_ELEMENT_THEORY":"SGP4","BSTAR":"0.00014247000000","MEAN_MOTION":"15.06397823","GP_ID":"202766649","SEMIMAJOR_AXIS":"6925.355","TLE_LINE1":"1 44718U 19074F   22125.38419071  .00001841  00000-0  14247-3 0  9995","ELEMENT_SET_NO":"999","EPHEMERIS_TYPE":"0","APOAPSIS":"548.094","TIME_SYSTEM":"UTC","CLASSIFICATION_TYPE":"U","TLE_LINE2":"2 44718  53.0572  10.7956 0001261  76.3080 283.8049 15.06397823137087","ECCENTRICITY":"0.00012610","NORAD_CAT_ID":"44718","MEAN_MOTION_DDOT":"0.0000000000000","EPOCH":"2022-05-05T09:13:14.077344","MEAN_ANOMALY":"283.8049","SITE":"AFETR","REV_AT_EPOCH":"13708","RA_OF_ASC_NODE":"10.7956","OBJECT_ID":"2019-074F","LAUNCH_DATE":"2019-11-11","FILE":"3430353","MEAN_MOTION_DOT":"0.00001841","OBJECT_TYPE":"PAYLOAD","PERIOD":"95.592","DECAY_DATE":null,"REF_FRAME":"TEME","INCLINATION":"53.0572","OBJECT_NAME":"STARLINK-1012","COUNTRY_CODE":"US","PERIAPSIS":"546.347","RCS_SIZE":"LARGE","ARG_OF_PERICENTER":"76.3080"},{"EPOCH":"2022-05-05T09:23:51.236736","MEAN_MOTION_DDOT":"0.0000000000000","NORAD_CAT_ID":"44719","ECCENTRICITY":"0.00017940","RA_OF_ASC_NODE":"10.7680","REV_AT_EPOCH":"13725","SITE":"AFETR","MEAN_ANOMALY":"294.2594","CLASSIFICATION_TYPE":"U","TLE_LINE2":"2 44719  53.0545  10.7680 0001794  65.8582 294.2594 15.06411908137254","TIME_SYSTEM":"UTC","SEMIMAJOR_AXIS":"6925.312","GP_ID":"202775449","APOAPSIS":"548.419","EPHEMERIS_TYPE":"0","TLE_LINE1":"1 44719U 19074G   22125.39156524  .00002316  00000-0  17425-3 0  9997","ELEMENT_SET_NO":"999","MEAN_ELEMENT_THEORY":"SGP4","CENTER_NAME":"EARTH","MEAN_MOTION":"15.06411908","BSTAR":"0.00017425000000","OBJECT_NAME":"STARLINK-1013","INCLINATION":"53.0545","REF_FRAME":"TEME","ARG_OF_PERICENTER":"65.8582","PERIAPSIS":"545.935","RCS_SIZE":"LARGE","COUNTRY_CODE":"US","PERIOD":"95.591","OBJECT_TYPE":"PAYLOAD","DECAY_DATE":null,"FILE":"3430481","MEAN_MOTION_DOT":"0.00002316","LAUNCH_DATE":"2019-11-11","OBJECT_ID":"2019-074G"}];
